CCSDS_OMM_VERS = 2.0
CREATION_DATE  = 
ORIGINATOR     = 

OBJECT_NAME    = SL-14 R/B
OBJECT_ID      = 1991-042B
CENTER_NAME    = EARTH
REF_FRAME      = TEME
TIME_SYSTEM    = UTC
MEAN_ELEMENT_THEORY = SGP/SGP4

EPOCH          = 2025-12-09T21:04:37.538400
MEAN_MOTION    = 14.81735009
ECCENTRICITY   = .0017186
INCLINATION    = 82.4923
RA_OF_ASC_NODE = 304.4063
ARG_OF_PERICENTER = 170.9604
MEAN_ANOMALY   = 189.1923

EPHEMERIS_TYPE = 0
CLASSIFICATION_TYPE = U
NORAD_CAT_ID   = 21423
ELEMENT_SET_NO = 999
REV_AT_EPOCH   = 83977
BSTAR          = .99254E-4
MEAN_MOTION_DOT = .807E-5
MEAN_MOTION_DDOT = 0

CCSDS_OMM_VERS = 2.0
CREATION_DATE  = 
ORIGINATOR     = 

OBJECT_NAME    = ERS-1
OBJECT_ID      = 1991-050A
CENTER_NAME    = EARTH
REF_FRAME      = TEME
TIME_SYSTEM    = UTC
MEAN_ELEMENT_THEORY = SGP/SGP4

EPOCH          = 2025-12-10T00:37:12.024768
MEAN_MOTION    = 14.39361020
ECCENTRICITY   = .0032968
INCLINATION    = 98.7905
RA_OF_ASC_NODE = 355.0127
ARG_OF_PERICENTER = 107.8414
MEAN_ANOMALY   = 252.6374

EPHEMERIS_TYPE = 0
CLASSIFICATION_TYPE = U
NORAD_CAT_ID   = 21574
ELEMENT_SET_NO = 999
REV_AT_EPOCH   = 80283
BSTAR          = .17095E-3
MEAN_MOTION_DOT = .489E-5
MEAN_MOTION_DDOT = 0

CCSDS_OMM_VERS = 2.0
CREATION_DATE  = 
ORIGINATOR     = 

OBJECT_NAME    = ARIANE 40 R/B
OBJECT_ID      = 1991-050F
CENTER_NAME    = EARTH
REF_FRAME      = TEME
TIME_SYSTEM    = UTC
MEAN_ELEMENT_THEORY = SGP/SGP4

EPOCH          = 2025-12-10T03:37:44.050656
MEAN_MOTION    = 14.42809943
ECCENTRICITY   = .000294
INCLINATION    = 98.2166
RA_OF_ASC_NODE = 34.6750
ARG_OF_PERICENTER = 8.9750
MEAN_ANOMALY   = 351.1493

EPHEMERIS_TYPE = 0
CLASSIFICATION_TYPE = U
NORAD_CAT_ID   = 21610
ELEMENT_SET_NO = 999
REV_AT_EPOCH   = 80608
BSTAR          = .1782E-3
MEAN_MOTION_DOT = .552E-5
MEAN_MOTION_DDOT = 0

CCSDS_OMM_VERS = 2.0
CREATION_DATE  = 
ORIGINATOR     = 

OBJECT_NAME    = INTERCOSMOS 25
OBJECT_ID      = 1991-086A
CENTER_NAME    = EARTH
REF_FRAME      = TEME
TIME_SYSTEM    = UTC
MEAN_ELEMENT_THEORY = SGP/SGP4

EPOCH          = 2025-12-10T03:48:20.078208
MEAN_MOTION    = 12.11714524
ECCENTRICITY   = .1486808
INCLINATION    = 82.6074
RA_OF_ASC_NODE = 4.1365
ARG_OF_PERICENTER = 309.9605
MEAN_ANOMALY   = 37.9787

EPHEMERIS_TYPE = 0
CLASSIFICATION_TYPE = U
NORAD_CAT_ID   = 21819
ELEMENT_SET_NO = 999
REV_AT_EPOCH   = 48584
BSTAR          = .41607E-3
MEAN_MOTION_DOT = .2095E-4
MEAN_MOTION_DDOT = 0

CCSDS_OMM_VERS = 2.0
CREATION_DATE  = 
ORIGINATOR     = 

OBJECT_NAME    = SL-8 R/B
OBJECT_ID      = 1992-008B
CENTER_NAME    = EARTH
REF_FRAME      = TEME
TIME_SYSTEM    = UTC
MEAN_ELEMENT_THEORY = SGP/SGP4

EPOCH          = 2025-12-10T01:29:03.259392
MEAN_MOTION    = 13.75958011
ECCENTRICITY   = .0035351
INCLINATION    = 82.9263
RA_OF_ASC_NODE = 334.4384
ARG_OF_PERICENTER = 27.1611
MEAN_ANOMALY   = 35.6514

EPHEMERIS_TYPE = 0
CLASSIFICATION_TYPE = U
NORAD_CAT_ID   = 21876
ELEMENT_SET_NO = 999
REV_AT_EPOCH   = 69709
BSTAR          = .14969E-3
MEAN_MOTION_DOT = .161E-5
MEAN_MOTION_DDOT = 0

CCSDS_OMM_VERS = 2.0
CREATION_DATE  = 
ORIGINATOR     = 

OBJECT_NAME    = SL-8 R/B
OBJECT_ID      = 1992-020B
CENTER_NAME    = EARTH
REF_FRAME      = TEME
TIME_SYSTEM    = UTC
MEAN_ELEMENT_THEORY = SGP/SGP4

EPOCH          = 2025-12-10T03:50:00.854304
MEAN_MOTION    = 13.75526396
ECCENTRICITY   = .0028724
INCLINATION    = 82.9310
RA_OF_ASC_NODE = 220.2333
ARG_OF_PERICENTER = 185.4192
MEAN_ANOMALY   = 285.8798

EPHEMERIS_TYPE = 0
CLASSIFICATION_TYPE = U
NORAD_CAT_ID   = 21938
ELEMENT_SET_NO = 999
REV_AT_EPOCH   = 68882
BSTAR          = .1104E-3
MEAN_MOTION_DOT = .122E-5
MEAN_MOTION_DDOT = 0

CCSDS_OMM_VERS = 2.0
CREATION_DATE  = 
ORIGINATOR     = 

OBJECT_NAME    = USA 81
OBJECT_ID      = 1992-023A
CENTER_NAME    = EARTH
REF_FRAME      = TEME
TIME_SYSTEM    = UTC
MEAN_ELEMENT_THEORY = SGP/SGP4

EPOCH          = 2025-12-10T02:23:53.390400
MEAN_MOTION    = 14.32325343
ECCENTRICITY   = .0001519
INCLINATION    = 85.0083
RA_OF_ASC_NODE = 183.0987
ARG_OF_PERICENTER = 63.2906
MEAN_ANOMALY   = 296.8441

EPHEMERIS_TYPE = 0
CLASSIFICATION_TYPE = U
NORAD_CAT_ID   = 21949
ELEMENT_SET_NO = 999
REV_AT_EPOCH   = 8196
BSTAR          = .89688E-4
MEAN_MOTION_DOT = .262E-5
MEAN_MOTION_DDOT = 0

CCSDS_OMM_VERS = 2.0
CREATION_DATE  = 
ORIGINATOR     = 

OBJECT_NAME    = COSMOS 2219
OBJECT_ID      = 1992-076A
CENTER_NAME    = EARTH
REF_FRAME      = TEME
TIME_SYSTEM    = UTC
MEAN_ELEMENT_THEORY = SGP/SGP4

EPOCH          = 2025-12-10T00:52:35.579424
MEAN_MOTION    = 14.14062515
ECCENTRICITY   = .0019037
INCLINATION    = 71.0585
RA_OF_ASC_NODE = 205.4839
ARG_OF_PERICENTER = 330.5142
MEAN_ANOMALY   = 29.4905

EPHEMERIS_TYPE = 0
CLASSIFICATION_TYPE = U
NORAD_CAT_ID   = 22219
ELEMENT_SET_NO = 999
REV_AT_EPOCH   = 70570
BSTAR          = -.30082E-4
MEAN_MOTION_DOT = -.105E-5
MEAN_MOTION_DDOT = 0

CCSDS_OMM_VERS = 2.0
CREATION_DATE  = 
ORIGINATOR     = 

OBJECT_NAME    = SL-16 R/B
OBJECT_ID      = 1992-076B
CENTER_NAME    = EARTH
REF_FRAME      = TEME
TIME_SYSTEM    = UTC
MEAN_ELEMENT_THEORY = SGP/SGP4

EPOCH          = 2025-12-10T04:11:52.033920
MEAN_MOTION    = 14.16841073
ECCENTRICITY   = .0014893
INCLINATION    = 71.0009
RA_OF_ASC_NODE = 16.9352
ARG_OF_PERICENTER = 237.6648
MEAN_ANOMALY   = 180.1502

EPHEMERIS_TYPE = 0
CLASSIFICATION_TYPE = U
NORAD_CAT_ID   = 22220
ELEMENT_SET_NO = 999
REV_AT_EPOCH   = 70915
BSTAR          = -.53235E-4
MEAN_MOTION_DOT = -.155E-5
MEAN_MOTION_DDOT = 0

CCSDS_OMM_VERS = 2.0
CREATION_DATE  = 
ORIGINATOR     = 

OBJECT_NAME    = COSMOS 2221
OBJECT_ID      = 1992-080A
CENTER_NAME    = EARTH
REF_FRAME      = TEME
TIME_SYSTEM    = UTC
MEAN_ELEMENT_THEORY = SGP/SGP4

EPOCH          = 2025-12-10T03:24:24.157728
MEAN_MOTION    = 14.95744389
ECCENTRICITY   = .001588
INCLINATION    = 82.5046
RA_OF_ASC_NODE = 4.8118
ARG_OF_PERICENTER = 129.5966
MEAN_ANOMALY   = 230.6661

EPHEMERIS_TYPE = 0
CLASSIFICATION_TYPE = U
NORAD_CAT_ID   = 22236
ELEMENT_SET_NO = 999
REV_AT_EPOCH   = 76740
BSTAR          = .25938E-3
MEAN_MOTION_DOT = .2922E-4
MEAN_MOTION_DDOT = 0

CCSDS_OMM_VERS = 2.0
CREATION_DATE  = 
ORIGINATOR     = 

OBJECT_NAME    = SL-16 R/B
OBJECT_ID      = 1992-093B
CENTER_NAME    = EARTH
REF_FRAME      = TEME
TIME_SYSTEM    = UTC
MEAN_ELEMENT_THEORY = SGP/SGP4

EPOCH          = 2025-12-09T23:42:36.351936
MEAN_MOTION    = 14.15427403
ECCENTRICITY   = .0002112
INCLINATION    = 71.0200
RA_OF_ASC_NODE = 192.5725
ARG_OF_PERICENTER = 80.5204
MEAN_ANOMALY   = 279.6157

EPHEMERIS_TYPE = 0
CLASSIFICATION_TYPE = U
NORAD_CAT_ID   = 22285
ELEMENT_SET_NO = 999
REV_AT_EPOCH   = 70046
BSTAR          = .14838E-3
MEAN_MOTION_DOT = .242E-5
MEAN_MOTION_DDOT = 0

CCSDS_OMM_VERS = 2.0
CREATION_DATE  = 
ORIGINATOR     = 

OBJECT_NAME    = COSMOS 2228
OBJECT_ID      = 1992-094A
CENTER_NAME    = EARTH
REF_FRAME      = TEME
TIME_SYSTEM    = UTC
MEAN_ELEMENT_THEORY = SGP/SGP4

EPOCH          = 2025-12-10T03:35:45.542688
MEAN_MOTION    = 14.96708622
ECCENTRICITY   = .001638
INCLINATION    = 82.5180
RA_OF_ASC_NODE = 323.0123
ARG_OF_PERICENTER = 240.8333
MEAN_ANOMALY   = 119.1251

EPHEMERIS_TYPE = 0
CLASSIFICATION_TYPE = U
NORAD_CAT_ID   = 22286
ELEMENT_SET_NO = 999
REV_AT_EPOCH   = 76266
BSTAR          = .32788E-3
MEAN_MOTION_DOT = .3778E-4
MEAN_MOTION_DDOT = 0

