SL-14 R/B               
1 21423U 91042B   25343.87821225  .00000807  00000+0  99254-4 0  9997
2 21423  82.4923 304.4063 0017186 170.9604 189.1923 14.81735009839777
ERS-1                   
1 21574U 91050A   25344.02583362  .00000489  00000+0  17095-3 0  9996
2 21574  98.7905 355.0127 0032968 107.8414 252.6374 14.39361020802834
ARIANE 40 R/B           
1 21610U 91050F   25344.15120429  .00000552  00000+0  17820-3 0  9999
2 21610  98.2166  34.6750 0002940   8.9750 351.1493 14.42809943806085
INTERCOSMOS 25          
1 21819U 91086A   25344.15856572  .00002095  00000+0  41607-3 0  9998
2 21819  82.6074   4.1365 1486808 309.9605  37.9787 12.11714524485844
SL-8 R/B                
1 21876U 92008B   25344.06184328  .00000161  00000+0  14969-3 0  9992
2 21876  82.9263 334.4384 0035351  27.1611  35.6514 13.75958011697095
SL-8 R/B                
1 21938U 92020B   25344.15973211  .00000122  00000+0  11040-3 0  9996
2 21938  82.9310 220.2333 0028724 185.4192 285.8798 13.75526396688822
USA 81                  
1 21949U 92023A   25344.09992350  .00000262  00000+0  89688-4 0  9998
2 21949  85.0083 183.0987 0001519  63.2906 296.8441 14.32325343 81967
COSMOS 2219             
1 22219U 92076A   25344.03652291 -.00000105  00000+0 -30082-4 0  9990
2 22219  71.0585 205.4839 0019037 330.5142  29.4905 14.14062515705700
SL-16 R/B               
1 22220U 92076B   25344.17490780 -.00000155  00000+0 -53235-4 0  9990
2 22220  71.0009  16.9352 0014893 237.6648 180.1502 14.16841073709158
COSMOS 2221             
1 22236U 92080A   25344.14194627  .00002922  00000+0  25938-3 0  9990
2 22236  82.5046   4.8118 0015880 129.5966 230.6661 14.95744389767406
SL-16 R/B               
1 22285U 92093B   25343.98792074  .00000242  00000+0  14838-3 0  9999
2 22285  71.0200 192.5725 0002112  80.5204 279.6157 14.15427403700462
COSMOS 2228             
1 22286U 92094A   25344.14983267  .00003778  00000+0  32788-3 0  9997
2 22286  82.5180 323.0123 0016380 240.8333 119.1251 14.96708622762663
